1 34482U 93036UB  17114.95925317 +.00001391 +00000-0 +45736-3 0  9999
2 34482 074.0497 325.1183 0078512 092.7486 019.6514 14.37434668426662
1 34486U 97051GB  17114.95992194 +.00001408 +00000-0 +35587-3 0  9993
2 34486 086.4090 297.7592 0019710 026.4640 126.6359 14.50239190430233
1 34487U 97051GC  17114.50530573 +.00000252 +00000-0 +73573-4 0  9998
2 34487 086.3423 283.4345 0034577 080.4243 338.2724 14.39691659428545
1 34488U 97051GD  17114.15349115 +.00001640 +00000-0 +38628-3 0  9993
2 34488 086.3450 269.7247 0025234 003.4143 356.7231 14.53556540430847
1 34489U 97051GE  17114.59614133 +.00003761 +00000-0 +12584-2 0  9995
2 34489 086.4135 345.0726 0075257 224.5818 134.9311 14.35573677423896
1 34490U 97051GF  17114.90686162 +.00010619 +00000-0 +15914-2 0  9993
2 34490 086.3252 269.2011 0035559 228.0471 255.8823 14.74106482430883
1 34492U 97051GH  17114.42650525 +.00001835 +00000-0 +10971-2 0  9994
2 34492 086.5014 099.0527 0312245 183.6347 330.6267 13.85130780411110
1 34493U 97051GJ  17114.57993650 +.00005991 +00000-0 +11991-2 0  9990
2 34493 086.2670 254.4353 0056776 227.6171 132.0227 14.60648481429180
1 34496U 97051GM  17114.37239963 +.00006845 +00000-0 +21976-2 0  9994
2 34496 086.3939 348.6648 0090697 319.6297 039.8191 14.36979217422449
1 34497U 97051GN  17114.53344105 +.00000534 +00000-0 +23552-3 0  9990
2 34497 086.2780 305.4479 0089538 328.4432 084.2445 14.19534894420721
1 34503U 97051GU  17114.85005437 +.00001421 +00000-0 +31166-3 0  9991
2 34503 086.3171 253.5671 0005861 052.3794 307.7946 14.56958846431855
1 34508U 97051GZ  17114.76208355 +.00001174 +00000-0 +49257-3 0  9995
2 34508 086.3789 333.4681 0076932 263.4890 095.7537 14.23602154423216
1 34511U 97051HC  17114.97539705 +.00002628 +00000-0 +73008-3 0  9994
2 34511 086.3869 307.5984 0025948 023.9265 094.0701 14.45973683427911
1 34517U 97051HJ  17114.96113844 +.00008763 +00000-0 +13832-2 0  9995
2 34517 086.3649 276.6740 0007941 099.6114 023.0981 14.72266469431009
1 34518U 97051HK  17114.93480431 +.00005847 +00000-0 +96645-3 0  9996
2 34518 086.3944 291.5370 0006027 003.5303 356.5954 14.70219555430578
1 34520U 97051HM  17114.90938449 +.00011521 +00000-0 +17457-2 0  9992
2 34520 086.3647 284.4541 0015666 250.7029 109.2495 14.73988997430245
1 34521U 97051HN  17114.97075094 +.00001035 +00000-0 +30836-3 0  9994
2 34521 086.3839 300.1982 0007105 354.6827 156.4659 14.42200986428674
1 34522U 97051HP  17114.80941880 +.00004471 +00000-0 +10377-2 0  9996
2 34522 086.3673 310.8694 0060112 106.9310 020.1866 14.53684440426703
1 34524U 97051HR  17114.90013300 +.00002927 +00000-0 +77054-3 0  9996
2 34524 086.3435 290.6030 0036858 047.1712 313.2579 14.48368269428242
1 34525U 97051HS  17114.82426020 +.00000409 +00000-0 +13223-3 0  9996
2 34525 086.3720 301.5280 0005232 023.6564 039.5548 14.36704314427554
1 34526U 97051HT  17114.96820206 +.00008601 +00000-0 +15472-2 0  9995
2 34526 086.3428 280.9888 0017599 285.1869 197.1218 14.66426791429736
1 34529U 97051HW  17114.93935403 +.00000146 +00000-0 +42043-4 0  9993
2 34529 086.3618 293.9820 0010348 110.2271 250.0040 14.37643674428055
1 34532U 97051HZ  17114.94101247 +.00007921 +00000-0 +16919-2 0  9998
2 34532 086.3448 300.1348 0055990 053.0265 307.6050 14.57748727426757
1 34535U 97051JC  17114.86578712 +.00007693 +00000-0 +11883-2 0  9998
2 34535 086.3347 258.0710 0013798 237.1694 247.8154 14.73153564432577
1 34538U 97051JF  17114.93254701 +.00000830 +00000-0 +30762-3 0  9992
2 34538 086.2778 284.6301 0045927 141.3430 345.3800 14.30486570425765
1 34540U 97051JH  17114.92094302 +.00001329 +00000-0 +32808-3 0  9990
2 34540 086.3219 261.7317 0028396 028.2969 091.8516 14.51165669431246
1 34542U 93036UC  17114.87589220 +.00002872 +00000-0 +55816-3 0  9991
2 34542 074.0242 143.0572 0027154 349.0502 011.0071 14.63408387431140
1 34544U 93036UE  17114.34648610 +.00000314 +00000-0 +31509-3 0  9996
2 34544 073.9181 249.0632 0395252 139.8585 253.0845 13.51231220402443
1 34545U 93036UF  17114.70909385 +.00003611 +00000-0 +79805-3 0  9990
2 34545 074.0374 213.5613 0019998 349.8241 162.3604 14.57522467430772
1 34546U 93036UG  17114.91666649 +.00000462 +00000-0 +16680-3 0  9990
2 34546 074.0337 301.7222 0025356 067.1384 051.2298 14.36137518426812
1 34547U 93036UH  17114.82715574 +.00001054 +00000-0 +31361-3 0  9994
2 34547 074.0388 261.0304 0039325 045.1557 315.2783 14.43957024428147
1 34550U 93036UL  17113.01566081 +.00003306 +00000-0 +11718-2 0  9990
2 34550 073.9926 107.8843 0184895 290.8737 067.2700 14.25807980420009
1 34552U 93036UN  17114.95585993 +.00002396 +00000-0 +68065-3 0  9995
2 34552 074.0338 286.3511 0036715 035.8702 122.7401 14.45548803426213
1 34553U 93036UP  17114.95478986 +.00001009 +00000-0 +33389-3 0  9990
2 34553 074.0304 291.9516 0028925 058.2640 065.4456 14.39003178425988
1 34554U 93036UQ  17114.96902087 +.00000280 +00000-0 +11011-3 0  9994
2 34554 074.0385 315.0079 0024661 071.1864 051.6219 14.33535550425279
1 34555U 93036UR  17114.79730472 +.00002613 +00000-0 +68047-3 0  9996
2 34555 074.0293 253.5024 0025795 015.9312 102.3578 14.49875805427267
1 34556U 93036US  17114.86772465 +.00001333 +00000-0 +41166-3 0  9994
2 34556 074.0301 282.2021 0025055 038.9777 082.5033 14.42123947426432
1 34560U 93036UW  17114.91957666 +.00001183 +00000-0 +37211-3 0  9992
2 34560 074.0269 284.9110 0031983 053.7765 097.1591 14.41232093426171
1 34561U 93036UX  17114.67108744 +.00001993 +00000-0 +48494-3 0  9995
2 34561 074.0350 218.7540 0046228 011.1061 349.1109 14.52827327428753
1 34563U 93036UZ  17114.52684122 +.00000424 +00000-0 +14628-3 0  9990
2 34563 074.0392 277.1364 0015022 066.9001 356.2677 14.38818891427729
1 34564U 93036VA  17114.91650168 +.00000223 +00000-0 +84357-4 0  9991
2 34564 074.0329 284.3401 0019470 079.6208 072.5851 14.36679466426826
1 34567U 93036VD  17114.95993910 +.00000117 +00000-0 +62850-4 0  9999
2 34567 074.0439 056.2080 0076056 167.6730 261.0286 14.21577684422883
1 34569U 93036VF  17114.94259638 +.00000304 +00000-0 +14044-3 0  9991
2 34569 073.9937 090.4841 0173999 272.4804 160.0089 14.17522088422211
1 34570U 93036VG  17114.49888493 +.00000367 +00000-0 +24601-3 0  9999
2 34570 073.9611 270.1075 0199777 093.5381 334.7413 13.94778950416143
1 34571U 93036VH  17113.98252678 +.00001499 +00000-0 +67397-3 0  9999
2 34571 074.0506 123.0839 0107255 209.1376 150.3759 14.20195190423043
1 34572U 93036VJ  17114.38235306 +.00001302 +00000-0 +56220-3 0  9990
2 34572 074.0195 086.6141 0102098 185.9122 327.7308 14.22680469423251
1 34574U 93036VL  17114.73620562 +.00000791 +00000-0 +20455-3 0  9995
2 34574 074.0769 225.0975 0099755 352.8818 158.7706 14.48672953429646
1 34576U 93036VN  17114.87498108 +.00000653 +00000-0 +20569-3 0  9994
2 34576 074.0394 255.7104 0009663 075.2477 090.6057 14.42350722428993
1 34577U 93036VP  17114.88712245 +.00001616 +00000-0 +35693-3 0  9991
2 34577 074.0372 156.0542 0033947 007.2604 352.9045 14.57796694431968
1 34579U 93036VR  17114.90444510 +.00000380 +00000-0 +13275-3 0  9992
2 34579 074.0548 284.6967 0030121 063.3990 086.8240 14.38306204427762
1 34582U 93036VU  17114.92425142 +.00000571 +00000-0 +20794-3 0  9994
2 34582 074.0218 313.1987 0056853 102.5990 258.1528 14.34433419426572
1 34585U 93036VX  17114.56550042 +.00003867 +00000-0 +73148-3 0  9997
2 34585 074.0303 161.1617 0014249 352.7534 007.3425 14.64652646431133
1 34588U 93036WA  17114.90697803 +.00000381 +00000-0 +14136-3 0  9995
2 34588 074.0441 305.3162 0020614 058.7881 049.7998 14.35478453426440
1 34589U 93036WB  17114.73583024 +.00000485 +00000-0 +36660-3 0  9997
2 34589 073.9279 003.5689 0260095 206.1389 212.7085 13.81928667411057
1 34590U 93036WC  17114.54699385 +.00000166 +00000-0 +46987-4 0  9996
2 34590 074.0432 147.9482 0072933 353.7511 158.1350 14.51891604433649
1 34593U 97051JK  17114.68254490 +.00046164 +00000-0 +34668-2 0  9998
2 34593 086.3590 279.5179 0005551 277.2194 205.2127 15.02393126432218
1 34609U 93036WE  17114.28575185 +.00000219 +00000-0 +11567-3 0  9993
2 34609 073.7383 052.0176 0159119 051.3040 100.7961 14.13306511419985
1 34610U 93036WF  17114.58959064 +.00000895 +00000-0 +56826-3 0  9997
2 34610 074.0261 309.6480 0212519 074.5459 287.9033 13.94670249414826
1 34611U 93036WG  17114.82960152 +.00001007 +00000-0 +29378-3 0  9993
2 34611 074.0614 256.3760 0039956 030.0895 090.6062 14.44931835426710
1 34613U 93036WJ  17114.52437828 +.00000404 +00000-0 +21532-3 0  9995
2 34613 073.9708 144.3317 0136347 302.6914 130.6096 14.11944977418291
1 34614U 93036WK  17114.80367243 +.00002083 +00000-0 +14005-2 0  9991
2 34614 073.8933 027.9202 0276701 263.0371 153.7086 13.84390328409408
1 34615U 93036WL  17114.94211760 +.00000196 +00000-0 +20380-3 0  9996
2 34615 074.0035 291.3268 0411050 122.2109 028.1200 13.48867131402617
1 34616U 93036WM  17114.40653676 +.00012827 +00000-0 +18795-2 0  9994
2 34616 074.0290 206.2011 0021128 291.3803 187.9007 14.75489483428881
1 34619U 93036WQ  17113.98404085 +.00000333 +00000-0 +73153-4 0  9997
2 34619 074.0472 097.0635 0104289 281.8018 077.1464 14.58652348432847
1 34620U 93036WR  17114.76796562 +.00001623 +00000-0 +73484-3 0  9999
2 34620 074.0670 140.4094 0130326 236.8621 243.6967 14.18369218418942
1 34622U 93036WT  17114.40240919 +.00000730 +00000-0 +37634-3 0  9997
2 34622 074.0426 145.2425 0123483 258.2550 162.0348 14.13082964418301
1 34624U 93036WV  17114.56039391 +.00012964 +00000-0 +15644-2 0  9994
2 34624 074.0042 169.7147 0022689 289.2689 194.1065 14.83649787432051
1 34626U 93036WX  17114.65734241 +.00000922 +00000-0 +22993-3 0  9999
2 34626 074.0605 185.7088 0040671 008.7036 144.0263 14.52565540432213
1 34629U 93036XA  17114.84508739 +.00006336 +00000-0 +64570-3 0  9996
2 34629 073.7814 262.5015 0065355 278.1680 081.2090 14.89315043438006
1 34631U 93036XC  17114.77944647 +.00016055 +00000-0 +12370-2 0  9992
2 34631 074.0153 017.3377 0021243 211.1442 203.9819 15.01452178436542
